{
  "type": "FeatureCollection",
  "features": [
    {
      "type": "Feature",
      "properties": {
        "norad_id": 33805,
        "name": "COSMOS 2251 DEB",
        "group": "cosmos-2251-debris",
        "lat": -72.78578651887108,
        "lon": 174.21929931571123,
        "alt_km": 744.2168005983985,
        "timestamp": "2025-12-25T16:53:15.056357+00:00",
        "meta_object_name": "COSMOS 2251 DEB",
        "meta_object_id": "1993-036AW",
        "meta_epoch": "2025-12-25T04:09:31.443840",
        "meta_mean_motion": 14.57882455,
        "meta_eccentricity": 0.00598962,
        "meta_inclination": 74.0313,
        "meta_ra_of_asc_node": 287.6778,
        "meta_arg_of_pericenter": 113.0166,
        "meta_mean_anomaly": 247.7331,
        "meta_ephemeris_type": 0,
        "meta_classification_type": "U",
        "meta_norad_cat_id": 33805,
        "meta_element_set_no": 999,
        "meta_rev_at_epoch": 89408,
        "meta_bstar": 0.00024148706,
        "meta_mean_motion_dot": 1.104e-05,
        "meta_mean_motion_ddot": 0,
        "tle_line1": "1 33805U 93036AW  25359.17328060  .00001104  00000+0  24149-3 0  9999",
        "tle_line2": "2 33805  74.0313 287.6778 0059896 113.0166 247.7331 14.57882455894084"
      },
      "geometry": {
        "type": "Point",
        "coordinates": [
          174.21929931571123,
          -72.78578651887108
        ]
      }
    },
    {
      "type": "Feature",
      "properties": {
        "norad_id": 33811,
        "name": "COSMOS 2251 DEB",
        "group": "cosmos-2251-debris",
        "lat": -9.987697098596735,
        "lon": 98.69052455953008,
        "alt_km": 573.9965521735903,
        "timestamp": "2025-12-25T16:53:15.056368+00:00",
        "meta_object_name": "COSMOS 2251 DEB",
        "meta_object_id": "1993-036BC",
        "meta_epoch": "2025-12-25T05:34:21.057888",
        "meta_mean_motion": 15.05634141,
        "meta_eccentricity": 0.00309792,
        "meta_inclination": 73.8381,
        "meta_ra_of_asc_node": 276.7409,
        "meta_arg_of_pericenter": 355.1331,
        "meta_mean_anomaly": 160.8784,
        "meta_ephemeris_type": 0,
        "meta_classification_type": "U",
        "meta_norad_cat_id": 33811,
        "meta_element_set_no": 999,
        "meta_rev_at_epoch": 90206,
        "meta_bstar": 0.0011888903,
        "meta_mean_motion_dot": 0.00017348,
        "meta_mean_motion_ddot": 0,
        "tle_line1": "1 33811U 93036BC  25359.23218817  .00017348  00000+0  11889-2 0  9994",
        "tle_line2": "2 33811  73.8381 276.7409 0030979 355.1331 160.8784 15.05634141902063"
      },
      "geometry": {
        "type": "Point",
        "coordinates": [
          98.69052455953008,
          -9.987697098596735
        ]
      }
    },
    {
      "type": "Feature",
      "properties": {
        "norad_id": 33815,
        "name": "COSMOS 2251 DEB",
        "group": "cosmos-2251-debris",
        "lat": -24.06665455812536,
        "lon": -23.330056481502265,
        "alt_km": 507.2726339519659,
        "timestamp": "2025-12-25T16:53:15.056393+00:00",
        "meta_object_name": "COSMOS 2251 DEB",
        "meta_object_id": "1993-036BG",
        "meta_epoch": "2025-12-24T20:02:16.889280",
        "meta_mean_motion": 15.21390355,
        "meta_eccentricity": 0.00036759,
        "meta_inclination": 73.9533,
        "meta_ra_of_asc_node": 151.1177,
        "meta_arg_of_pericenter": 328.7614,
        "meta_mean_anomaly": 159.811,
        "meta_ephemeris_type": 0,
        "meta_classification_type": "U",
        "meta_norad_cat_id": 33815,
        "meta_element_set_no": 999,
        "meta_rev_at_epoch": 88554,
        "meta_bstar": 0.0078842257,
        "meta_mean_motion_dot": 0.0018137,
        "meta_mean_motion_ddot": 0,
        "tle_line1": "1 33815U 93036BG  25358.83491770  .00181370  00000+0  78842-2 0  9993",
        "tle_line2": "2 33815  73.9533 151.1177 0003675 328.7614 159.8110 15.21390355885546"
      },
      "geometry": {
        "type": "Point",
        "coordinates": [
          -23.330056481502265,
          -24.06665455812536
        ]
      }
    },
    {
      "type": "Feature",
      "properties": {
        "norad_id": 33816,
        "name": "COSMOS 2251 DEB",
        "group": "cosmos-2251-debris",
        "lat": 60.56511454589033,
        "lon": -127.3722379681391,
        "alt_km": 769.8662545187135,
        "timestamp": "2025-12-25T16:53:15.056404+00:00",
        "meta_object_name": "COSMOS 2251 DEB",
        "meta_object_id": "1993-036BH",
        "meta_epoch": "2025-12-25T07:39:55.794528",
        "meta_mean_motion": 13.81796891,
        "meta_eccentricity": 0.02641281,
        "meta_inclination": 73.8953,
        "meta_ra_of_asc_node": 84.0752,
        "meta_arg_of_pericenter": 94.5125,
        "meta_mean_anomaly": 268.6219,
        "meta_ephemeris_type": 0,
        "meta_classification_type": "U",
        "meta_norad_cat_id": 33816,
        "meta_element_set_no": 999,
        "meta_rev_at_epoch": 84847,
        "meta_bstar": 0.00035486119,
        "meta_mean_motion_dot": 4.74e-06,
        "meta_mean_motion_ddot": 0,
        "tle_line1": "1 33816U 93036BH  25359.31939577  .00000474  00000+0  35486-3 0  9993",
        "tle_line2": "2 33816  73.8953  84.0752 0264128  94.5125 268.6219 13.81796891848471"
      },
      "geometry": {
        "type": "Point",
        "coordinates": [
          -127.3722379681391,
          60.56511454589033
        ]
      }
    },
    {
      "type": "Feature",
      "properties": {
        "norad_id": 33818,
        "name": "COSMOS 2251 DEB",
        "group": "cosmos-2251-debris",
        "lat": 39.69273944454394,
        "lon": -54.276367989037105,
        "alt_km": 505.9480844707632,
        "timestamp": "2025-12-25T16:53:15.056415+00:00",
        "meta_object_name": "COSMOS 2251 DEB",
        "meta_object_id": "1993-036BK",
        "meta_epoch": "2025-12-24T20:09:40.929120",
        "meta_mean_motion": 15.13486245,
        "meta_eccentricity": 0.00241424,
        "meta_inclination": 74.0795,
        "meta_ra_of_asc_node": 141.215,
        "meta_arg_of_pericenter": 124.0784,
        "meta_mean_anomaly": 350.7317,
        "meta_ephemeris_type": 0,
        "meta_classification_type": "U",
        "meta_norad_cat_id": 33818,
        "meta_element_set_no": 999,
        "meta_rev_at_epoch": 90045,
        "meta_bstar": 0.0027987586,
        "meta_mean_motion_dot": 0.00050768,
        "meta_mean_motion_ddot": 0,
        "tle_line1": "1 33818U 93036BK  25358.84005705  .00050768  00000+0  27988-2 0  9997",
        "tle_line2": "2 33818  74.0795 141.2150 0024142 124.0784 350.7317 15.13486245900453"
      },
      "geometry": {
        "type": "Point",
        "coordinates": [
          -54.276367989037105,
          39.69273944454394
        ]
      }
    },
    {
      "type": "Feature",
      "properties": {
        "norad_id": 33819,
        "name": "COSMOS 2251 DEB",
        "group": "cosmos-2251-debris",
        "lat": 72.58916826308126,
        "lon": -58.33557110781842,
        "alt_km": 738.3457660871736,
        "timestamp": "2025-12-25T16:53:15.056426+00:00",
        "meta_object_name": "COSMOS 2251 DEB",
        "meta_object_id": "1993-036BL",
        "meta_epoch": "2025-12-25T03:31:48.080928",
        "meta_mean_motion": 14.32261297,
        "meta_eccentricity": 0.00895197,
        "meta_inclination": 74.1772,
        "meta_ra_of_asc_node": 187.4026,
        "meta_arg_of_pericenter": 44.9861,
        "meta_mean_anomaly": 62.9649,
        "meta_ephemeris_type": 0,
        "meta_classification_type": "U",
        "meta_norad_cat_id": 33819,
        "meta_element_set_no": 999,
        "meta_rev_at_epoch": 87673,
        "meta_bstar": 0.00050552574,
        "meta_mean_motion_dot": 1.401e-05,
        "meta_mean_motion_ddot": 0,
        "tle_line1": "1 33819U 93036BL  25359.14708427  .00001401  00000+0  50553-3 0  9998",
        "tle_line2": "2 33819  74.1772 187.4026 0089519  44.9861  62.9649 14.32261297876730"
      },
      "geometry": {
        "type": "Point",
        "coordinates": [
          -58.33557110781842,
          72.58916826308126
        ]
      }
    },
    {
      "type": "Feature",
      "properties": {
        "norad_id": 33821,
        "name": "COSMOS 2251 DEB",
        "group": "cosmos-2251-debris",
        "lat": 7.319452574360879,
        "lon": -66.69259287511454,
        "alt_km": 459.1494083639109,
        "timestamp": "2025-12-25T16:53:15.056437+00:00",
        "meta_object_name": "COSMOS 2251 DEB",
        "meta_object_id": "1993-036BN",
        "meta_epoch": "2025-12-25T00:24:15.974784",
        "meta_mean_motion": 15.26070285,
        "meta_eccentricity": 0.00493592,
        "meta_inclination": 74.0305,
        "meta_ra_of_asc_node": 116.8684,
        "meta_arg_of_pericenter": 146.067,
        "meta_mean_anomaly": 214.3706,
        "meta_ephemeris_type": 0,
        "meta_classification_type": "U",
        "meta_norad_cat_id": 33821,
        "meta_element_set_no": 999,
        "meta_rev_at_epoch": 75188,
        "meta_bstar": 0.0013466315,
        "meta_mean_motion_dot": 0.00036085,
        "meta_mean_motion_ddot": 0,
        "tle_line1": "1 33821U 93036BN  25359.01685156  .00036085  00000+0  13466-2 0  9997",
        "tle_line2": "2 33821  74.0305 116.8684 0049359 146.0670 214.3706 15.26070285751884"
      },
      "geometry": {
        "type": "Point",
        "coordinates": [
          -66.69259287511454,
          7.319452574360879
        ]
      }
    }
  ]
}